ONEWEB-0685             
1 54679U 22166AP  25281.47765375  .00000033  00000+0  47198-4 0  9998
2 54679  87.9167 294.2182 0001769  84.8975 275.2361 13.21829318138166
ONEWEB-0714             
1 54681U 22166AR  25281.48395565  .00003105  00000+0  74800-2 0  9993
2 54681  87.9173 294.2106 0001745  88.1285 272.0049 13.21854374138288
ONEWEB-0532             
1 55140U 23004A   25281.38088787  .00000018  00000+0  13551-4 0  9998
2 55140  87.9097  55.9319 0002002  86.5749 273.5611 13.17649608134426
ONEWEB-0533             
1 55141U 23004B   25281.41736666  .00000052  00000+0  10925-3 0  9998
2 55141  87.8949  40.6766 0001514  92.9917 267.1384 13.12440304135035
ONEWEB-0541             
1 55142U 23004C   25281.40296440  .00000537  00000+0  14790-2 0  9990
2 55142  87.8813  71.1941 0001755  93.7312 266.4017 13.11416026132940
ONEWEB-0543             
1 55143U 23004D   25281.70909467  .00000031  00000+0  46225-4 0  9993
2 55143  87.9208  25.4450 0001565 106.3886 253.7418 13.18687788136550
ONEWEB-0544             
1 55144U 23004E   25281.32311709  .00000099  00000+0  21857-3 0  9995
2 55144  87.9207  25.5116 0001782 107.8630 252.2697 13.18686439136504
